NORAD_CAT_ID,OBJECT_NAME,OBJECT_TYPE,EPOCH,MEAN_MOTION,ECCENTRICITY,INCLINATION,RA_OF_ASC_NODE,ARG_OF_PERICENTER,MEAN_ANOMALY,BSTAR,MEAN_MOTION_DOT,MEAN_MOTION_DDOT,TLE_LINE0,TLE_LINE1,TLE_LINE2,SEMIMAJOR_AXIS,PERIOD,APOGEE,PERIGEE,DECAYED
51869.0,STARLINK-3588,PAYLOAD,2023-08-19 03:54:42,15.08839851,0.0001159,53.2156,239.8872,85.4037,274.7088,4.103e-05,3.65e-06,0.0,0 STARLINK-3588,1 51869U 22022T   23231.16299652  .00000365  00000-0  41030-4 0  9994,2 51869  53.2156 239.8872 0001159  85.4037 274.7088 15.08839851 82188,6917.881,95.438,540.548,538.944,0.0
51869.0,STARLINK-3588,PAYLOAD,2023-08-20 10:07:02,15.0884108,0.0001227,53.2156,234.2365,89.5535,270.5598,5.8416e-05,6.42e-06,0.0,0 STARLINK-3588,1 51869U 22022T   23232.42155496  .00000642  00000-0  58416-4 0  9995,2 51869  53.2156 234.2365 0001227  89.5535 270.5598 15.08841080 82376,6917.877,95.437,540.591,538.893,0.0
51869.0,STARLINK-3588,PAYLOAD,2023-08-21 11:33:12,15.08841774,0.0001283,53.2158,229.4777,100.8424,259.2712,6.4836e-05,7.44e-06,0.0,0 STARLINK-3588,1 51869U 22022T   23233.48139449  .00000744  00000-0  64836-4 0  9998,2 51869  53.2158 229.4777 0001283 100.8424 259.2712 15.08841774 82537,6917.875,95.437,540.628,538.852,0.0
51869.0,STARLINK-3588,PAYLOAD,2023-08-22 00:16:18,15.08832551,0.0001274,53.2166,227.0981,99.3724,260.7413,1.4208e-05,-6.2e-07,0.0,0 STARLINK-3588,1 51869U 22022T   23234.01132300 -.00000062  00000-0  14208-4 0  9999,2 51869  53.2166 227.0981 0001274  99.3724 260.7413 15.08832551 82619,6917.903,95.438,540.649,538.887,0.0
51869.0,STARLINK-3588,PAYLOAD,2023-08-22 11:23:59,15.08839512,0.000144,53.2162,225.0167,110.1639,249.9508,2.6075e-05,1.27e-06,0.0,0 STARLINK-3588,1 51869U 22022T   23234.47499921  .00000127  00000-0  26075-4 0  9990,2 51869  53.2162 225.0167 0001440 110.1639 249.9508 15.08839512 82686,6917.882,95.438,540.743,538.751,0.0
51869.0,STARLINK-3588,PAYLOAD,2023-08-24 07:54:47,15.08840757,0.000138,53.216,216.6921,95.7081,264.4068,9.231e-05,1.182e-05,0.0,0 STARLINK-3588,1 51869U 22022T   23236.32972121  .00001182  00000-0  92310-4 0  9991,2 51869  53.2160 216.6921 0001380  95.7081 264.4068 15.08840757 82967,6917.878,95.438,540.698,538.788,0.0
51869.0,STARLINK-3588,PAYLOAD,2023-08-25 07:45:34,15.08845287,0.0001419,53.2161,212.2321,92.2565,267.8589,8.0923e-05,1e-05,0.0,0 STARLINK-3588,1 51869U 22022T   23237.32331955  .00001000  00000-0  80923-4 0  9992,2 51869  53.2161 212.2321 0001419  92.2565 267.8589 15.08845287 83112,6917.864,95.437,540.711,538.748,0.0
51869.0,STARLINK-3588,PAYLOAD,2023-08-26 01:14:50,15.08835241,0.0001473,53.2161,208.9615,87.0381,273.078,3.6811e-05,2.98e-06,0.0,0 STARLINK-3588,1 51869U 22022T   23238.05196785  .00000298  00000-0  36811-4 0  9998,2 51869  53.2161 208.9615 0001473  87.0381 273.0780 15.08835241 83221,6917.895,95.438,540.779,538.741,0.0
51869.0,STARLINK-3588,PAYLOAD,2023-08-26 07:36:22,15.08842267,0.0001463,53.2159,207.771,88.2353,271.8807,5.6293e-05,6.08e-06,0.0,0 STARLINK-3588,1 51869U 22022T   23238.31692306  .00000608  00000-0  56293-4 0  9998,2 51869  53.2159 207.7710 0001463  88.2353 271.8807 15.08842267 83268,6917.873,95.437,540.751,538.726,0.0
51869.0,STARLINK-3588,PAYLOAD,2023-08-26 21:54:50,15.08843234,0.0001496,53.2161,205.0956,85.3129,274.8034,3.6069e-05,2.86e-06,0.0,0 STARLINK-3588,1 51869U 22022T   23238.91308296  .00000286  00000-0  36069-4 0  9997,2 51869  53.2161 205.0956 0001496  85.3129 274.8034 15.08843234 83359,6917.871,95.437,540.77,538.701,0.0
51869.0,STARLINK-3588,PAYLOAD,2023-08-27 07:27:08,15.08850767,0.0001492,53.2167,203.3111,90.3552,269.7611,8.9993e-05,1.145e-05,0.0,0 STARLINK-3588,1 51869U 22022T   23239.31051505  .00001145  00000-0  89993-4 0  9999,2 51869  53.2167 203.3111 0001492  90.3552 269.7611 15.08850767 83411,6917.847,95.437,540.745,538.68,0.0
51869.0,STARLINK-3588,PAYLOAD,2023-08-28 02:31:47,15.0883398,0.0001648,53.2182,199.7435,100.2062,259.9116,-3.2284e-05,-8.02e-06,0.0,0 STARLINK-3588,1 51869U 22022T   23240.10540919 -.00000802  00000-0 -32284-4 0  9992,2 51869  53.2182 199.7435 0001648 100.2062 259.9116 15.08833980 83537,6917.899,95.438,540.904,538.624,0.0
51869.0,STARLINK-3588,PAYLOAD,2023-08-28 07:17:56,15.08841995,0.0001351,53.2165,198.8504,95.9308,264.1838,3.4607e-05,2.63e-06,0.0,0 STARLINK-3588,1 51869U 22022T   23240.30412223  .00000263  00000-0  34607-4 0  9990,2 51869  53.2165 198.8504 0001351  95.9308 264.1838 15.08841995 83566,6917.874,95.437,540.674,538.805,0.0
51869.0,STARLINK-3588,PAYLOAD,2023-08-29 00:47:11,15.0883774,0.0001335,53.2161,195.5781,96.1335,263.981,-3.6862e-05,-8.74e-06,0.0,0 STARLINK-3588,1 51869U 22022T   23241.03276804 -.00000874  00000-0 -36862-4 0  9999,2 51869  53.2161 195.5781 0001335  96.1335 263.9810 15.08837740 83670,6917.887,95.438,540.676,538.829,0.0
51869.0,STARLINK-3588,PAYLOAD,2023-08-29 07:08:43,15.08842514,0.0001294,53.2169,194.3912,91.2528,268.8612,3.0457e-05,1.97e-06,0.0,0 STARLINK-3588,1 51869U 22022T   23241.29772337  .00000197  00000-0  30457-4 0  9999,2 51869  53.2169 194.3912 0001294  91.2528 268.8612 15.08842514 83719,6917.873,95.437,540.633,538.843,0.0
51869.0,STARLINK-3588,PAYLOAD,2023-08-29 13:30:16,15.08837348,0.0001354,53.216,193.1975,75.2991,284.8151,-6.7548e-05,-1.363e-05,0.0,0 STARLINK-3588,1 51869U 22022T   23241.56268928 -.00001363  00000-0 -67548-4 0  9994,2 51869  53.2160 193.1975 0001354  75.2991 284.8151 15.08837348 83758,6917.888,95.438,540.69,538.817,0.0
51869.0,STARLINK-3588,PAYLOAD,2023-08-30 00:37:58,15.08837897,0.0001176,53.2155,191.1151,73.6858,286.4263,-5.8388e-05,-1.217e-05,0.0,0 STARLINK-3588,1 51869U 22022T   23242.02637220 -.00001217  00000-0 -58388-4 0  9991,2 51869  53.2155 191.1151 0001176  73.6858 286.4263 15.08837897 83821,6917.887,95.438,540.565,538.938,0.0
51869.0,STARLINK-3588,PAYLOAD,2023-08-30 13:21:03,15.08838519,0.0001201,53.2166,188.7402,95.2263,264.8866,2.7013e-05,1.42e-06,0.0,0 STARLINK-3588,1 51869U 22022T   23242.55628940  .00000142  00000-0  27013-4 0  9993,2 51869  53.2166 188.7402 0001201  95.2263 264.8866 15.08838519 83903,6917.885,95.438,540.581,538.919,0.0
51869.0,STARLINK-3588,PAYLOAD,2023-08-31 05:14:55,15.08837928,0.0001485,53.2172,185.7683,106.4059,253.7097,3.2627e-05,2.31e-06,0.0,0 STARLINK-3588,1 51869U 22022T   23243.21869237  .00000231  00000-0  32627-4 0  9999,2 51869  53.2172 185.7683 0001485 106.4059 253.7097 15.08837928 84008,6917.887,95.438,540.779,538.724,0.0
51869.0,STARLINK-3588,PAYLOAD,2023-09-01 13:02:39,15.08783622,0.0001424,53.2157,179.8231,102.316,257.7992,0.00081593,0.00012701,0.0,0 STARLINK-3588,1 51869U 22022T   23244.54351226  .00012701  00000-0  81593-3 0  9990,2 51869  53.2157 179.8231 0001424 102.3160 257.7992 15.08783622 84206,6918.053,95.441,540.903,538.933,0.0
51869.0,STARLINK-3588,PAYLOAD,2023-09-01 19:24:10,15.08843226,0.0001555,53.217,178.6296,82.7775,277.3394,6.4908e-06,-1.85e-06,0.0,0 STARLINK-3588,1 51869U 22022T   23244.80845397 -.00000185  00000-0  64908-5 0  9993,2 51869  53.2170 178.6296 0001555  82.7775 277.3394 15.08843226 84242,6917.871,95.437,540.811,538.66,0.0
51869.0,STARLINK-3588,PAYLOAD,2023-09-02 01:45:42,15.08845406,0.000122,53.2164,177.4391,88.3768,271.7364,0.00014163,1.967e-05,0.0,0 STARLINK-3588,1 51869U 22022T   23245.07340673  .00001967  00000-0  14163-3 0  9994,2 51869  53.2164 177.4391 0001220  88.3768 271.7364 15.08845406 84282,6917.864,95.437,540.573,538.885,0.0
51869.0,STARLINK-3588,PAYLOAD,2023-09-02 19:14:57,15.08843082,0.0001622,53.2163,174.1685,100.2978,259.8197,7.4565e-05,8.99e-06,0.0,0 STARLINK-3588,1 51869U 22022T   23245.80205015  .00000899  00000-0  74565-4 0  9991,2 51869  53.2163 174.1685 0001622 100.2978 259.8197 15.08843082 84395,6917.871,95.437,540.858,538.614,0.0
51869.0,STARLINK-3588,PAYLOAD,2023-09-03 01:36:29,15.0884365,0.0001722,53.2155,172.9786,97.9998,262.1189,7.3855e-05,8.88e-06,0.0,0 STARLINK-3588,1 51869U 22022T   23246.06700942  .00000888  00000-0  73855-4 0  9998,2 51869  53.2155 172.9786 0001722  97.9998 262.1189 15.08843650 84433,6917.869,95.437,540.925,538.543,0.0
51869.0,STARLINK-3588,PAYLOAD,2023-09-03 12:44:12,15.08837985,0.0001594,53.2134,170.8958,93.8597,266.2577,2.446e-05,1.01e-06,0.0,0 STARLINK-3588,1 51869U 22022T   23246.53069474  .00000101  00000-0  24460-4 0  9994,2 51869  53.2134 170.8958 0001594  93.8597 266.2577 15.08837985 84503,6917.887,95.438,540.854,538.649,0.0
51869.0,STARLINK-3588,PAYLOAD,2023-09-04 01:27:17,15.0882881,0.0001317,53.2173,168.5191,89.4817,270.6326,-3.638e-05,-8.67e-06,0.0,0 STARLINK-3588,1 51869U 22022T   23247.06062445 -.00000867  00000-0 -36380-4 0  9999,2 51869  53.2173 168.5191 0001317  89.4817 270.6326 15.08828810 84584,6917.915,95.438,540.691,538.869,0.0
51869.0,STARLINK-3588,PAYLOAD,2023-09-04 04:38:03,15.08836325,0.0001539,53.2176,167.9253,93.9884,266.1284,-1.723e-05,-5.62e-06,0.0,0 STARLINK-3588,1 51869U 22022T   23247.19309935 -.00000562  00000-0 -17230-4 0  9996,2 51869  53.2176 167.9253 0001539  93.9884 266.1284 15.08836325 84605,6917.892,95.438,540.821,538.692,0.0
51869.0,STARLINK-3588,PAYLOAD,2023-09-05 01:18:04,15.08842036,0.0001445,53.2175,164.06,90.1894,269.9263,2.9147e-05,1.76e-06,0.0,0 STARLINK-3588,1 51869U 22022T   23248.05421568  .00000176  00000-0  29147-4 0  9998,2 51869  53.2175 164.0600 0001445  90.1894 269.9263 15.08842036 84732,6917.874,95.437,540.739,538.74,0.0
51869.0,STARLINK-3588,PAYLOAD,2023-09-06 01:08:51,15.08835556,0.000149,53.2174,159.5993,85.4257,274.6905,0.00013737,1.899e-05,0.0,0 STARLINK-3588,1 51869U 22022T   23249.04781763  .00001899  00000-0  13737-3 0  9994,2 51869  53.2174 159.5993 0001490  85.4257 274.6905 15.08835556 84886,6917.894,95.438,540.79,538.728,0.0
51869.0,STARLINK-3588,PAYLOAD,2023-09-06 18:38:06,15.08841154,0.0001423,53.2167,156.3268,81.5349,278.5804,-1.1694e-05,-4.74e-06,0.0,0 STARLINK-3588,1 51869U 22022T   23249.77646022 -.00000474  00000-0 -11694-4 0  9993,2 51869  53.2167 156.3268 0001423  81.5349 278.5804 15.08841154 84997,6917.877,95.437,540.726,538.757,0.0
